{
    "links": {
        "self": "http://www.neowsapp.com/rest/v1/neo/3776119?api_key=iIulBulltgU6a56xZRHN4H3l9WmuAYTsLGpBGhQ2"
    },
    "id": "3776119",
    "neo_reference_id": "3776119",
    "name": "(2017 MR7)",
    "designation": "2017 MR7",
    "nasa_jpl_url": "http://ssd.jpl.nasa.gov/sbdb.cgi?sstr=3776119",
    "absolute_magnitude_h": 22.1,
    "estimated_diameter": {
        "kilometers": {
            "estimated_diameter_min": 0.1010543415,
            "estimated_diameter_max": 0.2259643771
        },
        "meters": {
            "estimated_diameter_min": 101.054341542,
            "estimated_diameter_max": 225.9643771094
        },
        "miles": {
            "estimated_diameter_min": 0.0627922373,
            "estimated_diameter_max": 0.140407711
        },
        "feet": {
            "estimated_diameter_min": 331.5431259047,
            "estimated_diameter_max": 741.3529669956
        }
    },
    "is_potentially_hazardous_asteroid": false,
    "close_approach_data": [
        {
            "close_approach_date": "2017-07-16",
            "close_approach_date_full": "2017-Jul-16 11:37",
            "epoch_date_close_approach": 1500205020000,
            "relative_velocity": {
                "kilometers_per_second": "15.1333545994",
                "kilometers_per_hour": "54480.076557799",
                "miles_per_hour": "33851.8009033724"
            },
            "miss_distance": {
                "astronomical": "0.1728538362",
                "lunar": "67.2401422818",
                "kilometers": "25858565.716848894",
                "miles": "16067767.6641629772"
            },
            "orbiting_body": "Earth"
        }
    ],
    "orbital_data": {
        "orbit_id": "3",
        "orbit_determination_date": "2017-07-02 06:22:11",
        "first_observation_date": "2017-06-27",
        "last_observation_date": "2017-07-02",
        "data_arc_in_days": 5,
        "observations_used": 37,
        "orbit_uncertainty": "9",
        "minimum_orbit_intersection": ".113354",
        "jupiter_tisserand_invariant": "3.870",
        "epoch_osculation": "2457933.5",
        "eccentricity": ".6372216338951786",
        "semi_major_axis": "1.743147144345535",
        "inclination": "7.252208025853898",
        "ascending_node_longitude": "164.4409572619915",
        "orbital_period": "840.6195771104819",
        "perihelion_distance": ".6323760729059585",
        "perihelion_argument": "205.2034286700633",
        "aphelion_distance": "2.853918215785112",
        "perihelion_time": "2457996.307641081134",
        "mean_anomaly": "333.1022790750012",
        "mean_motion": ".4282555507896356",
        "equinox": "J2000",
        "orbit_class": {
            "orbit_class_type": "APO",
            "orbit_class_description": "Near-Earth asteroid orbits which cross the Earth’s orbit similar to that of 1862 Apollo",
            "orbit_class_range": "a (semi-major axis) > 1.0 AU; q (perihelion) < 1.017 AU"
        }
    },
    "is_sentry_object": false
}